[{"OBJECT_NAME":"STARLINK-34584","OBJECT_ID":"2025-142B","EPOCH":"2026-03-09T22:50:54.276576","MEAN_MOTION":14.98330275,"ECCENTRICITY":0.00023523,"INCLINATION":70.0013,"RA_OF_ASC_NODE":313.6509,"ARG_OF_PERICENTER":269.9726,"MEAN_ANOMALY":90.1163,"EPHEMERIS_TYPE":0,"CLASSIFICATION_TYPE":"U","NORAD_CAT_ID":64697,"ELEMENT_SET_NO":999,"REV_AT_EPOCH":3952,"BSTAR":0.00018884204,"MEAN_MOTION_DOT":2.161e-5,"MEAN_MOTION_DDOT":0},{"OBJECT_NAME":"RAPIDEYE 5","OBJECT_ID":"2008-040B","EPOCH":"2026-03-09T15:17:22.403904","MEAN_MOTION":15.02179038,"ECCENTRICITY":0.0014834,"INCLINATION":97.3944,"RA_OF_ASC_NODE":91.3825,"ARG_OF_PERICENTER":86.9831,"MEAN_ANOMALY":273.3091,"EPHEMERIS_TYPE":0,"CLASSIFICATION_TYPE":"U","NORAD_CAT_ID":33313,"ELEMENT_SET_NO":999,"REV_AT_EPOCH":95055,"BSTAR":0.00014028,"MEAN_MOTION_DOT":1.794e-5,"MEAN_MOTION_DDOT":0}]
